[
    {
        "Altitude(m)": 717803.3947045513,
        "Argument of Periapsis(deg)": 0.0034170363559881197,
        "Eccentricity": 0.0,
        "Inclination(deg)": 45.0,
        "Latitude(deg)": -44.960968480002336,
        "Longitude(deg)": -1.8557889649183352,
        "Mean Anomaly(deg)": -94.72183500575571,
        "RAAN(deg)": 194.99677441756256,
        "Satellite Name": "Constellation 1 874",
        "Satellite Number": 874,
        "Semi-Major Axis(m)": 7083131.272910544,
        "Time(s)": 57
    },
    {
        "Altitude(m)": 717805.4171961342,
        "Argument of Periapsis(deg)": 0.003476984362233526,
        "Eccentricity": 0.0,
        "Inclination(deg)": 45.0,
        "Latitude(deg)": -44.96589910361585,
        "Longitude(deg)": -1.7748262998617215,
        "Mean Anomaly(deg)": -94.66113386550585,
        "RAAN(deg)": 194.99671782839695,
        "Satellite Name": "Constellation 1 874",
        "Satellite Number": 874,
        "Semi-Major Axis(m)": 7083131.272910544,
        "Time(s)": 58
    },
    {
        "Altitude(m)": 717807.4135661867,
        "Argument of Periapsis(deg)": 0.003536932368478932,
        "Eccentricity": 0.0,
        "Inclination(deg)": 45.0,
        "Latitude(deg)": -44.97076636816026,
        "Longitude(deg)": -1.6938493515956454,
        "Mean Anomaly(deg)": -94.60043272525589,
        "RAAN(deg)": 194.9966612392314,
        "Satellite Name": "Constellation 1 874",
        "Satellite Number": 874,
        "Semi-Major Axis(m)": 7083131.272910544,
        "Time(s)": 59
    },
    {
        "Altitude(m)": 717809.383807314,
        "Argument of Periapsis(deg)": 0.003596880374724337,
        "Eccentricity": 0.0,
        "Inclination(deg)": 45.0,
        "Latitude(deg)": -44.975570252417135,
        "Longitude(deg)": -1.6128579660107567,
        "Mean Anomaly(deg)": -94.539731585006,
        "RAAN(deg)": 194.99660465006582,
        "Satellite Name": "Constellation 1 874",
        "Satellite Number": 874,
        "Semi-Major Axis(m)": 7083131.272910544,
        "Time(s)": 60
    },
    {
        "Altitude(m)": 717811.3279122261,
        "Argument of Periapsis(deg)": 0.0036568283809697427,
        "Eccentricity": 0.0,
        "Inclination(deg)": 45.0,
        "Latitude(deg)": -44.98031073543631,
        "Longitude(deg)": -1.531852493538251,
        "Mean Anomaly(deg)": -94.47903044475616,
        "RAAN(deg)": 194.99654806090027,
        "Satellite Name": "Constellation 1 874",
        "Satellite Number": 874,
        "Semi-Major Axis(m)": 7083131.272910544,
        "Time(s)": 61
    },
    {
        "Altitude(m)": 717813.245873721,
        "Argument of Periapsis(deg)": 0.003716776387215149,
        "Eccentricity": 0.0,
        "Inclination(deg)": 45.0,
        "Latitude(deg)": -44.98498779653532,
        "Longitude(deg)": -1.4508331167587059,
        "Mean Anomaly(deg)": -94.41832930450632,
        "RAAN(deg)": 194.99649147173471,
        "Satellite Name": "Constellation 1 874",
        "Satellite Number": 874,
        "Semi-Major Axis(m)": 7083131.272910544,
        "Time(s)": 62
    },
    {
        "Altitude(m)": 717815.1376846998,
        "Argument of Periapsis(deg)": 0.003776724393460554,
        "Eccentricity": 0.0,
        "Inclination(deg)": 45.0,
        "Latitude(deg)": -44.98960141530003,
        "Longitude(deg)": -1.3698000184962276,
        "Mean Anomaly(deg)": -94.35762816425634,
        "RAAN(deg)": 194.9964348825691,
        "Satellite Name": "Constellation 1 874",
        "Satellite Number": 874,
        "Semi-Major Axis(m)": 7083131.272910544,
        "Time(s)": 63
    },
    {
        "Altitude(m)": 717817.0033381564,
        "Argument of Periapsis(deg)": 0.003836672399705959,
        "Eccentricity": 0.0,
        "Inclination(deg)": 45.0,
        "Latitude(deg)": -44.994151571585,
        "Longitude(deg)": -1.2887533818155932,
        "Mean Anomaly(deg)": -94.29692702400648,
        "RAAN(deg)": 194.99637829340355,
        "Satellite Name": "Constellation 1 874",
        "Satellite Number": 874,
        "Semi-Major Axis(m)": 7083131.272910544,
        "Time(s)": 64
    },
    {
        "Altitude(m)": 717818.8428271831,
        "Argument of Periapsis(deg)": 0.003896620405951365,
        "Eccentricity": 0.0,
        "Inclination(deg)": 45.0,
        "Latitude(deg)": -44.998638245514016,
        "Longitude(deg)": -1.2076933900183573,
        "Mean Anomaly(deg)": -94.23622588375653,
        "RAAN(deg)": 194.996321704238,
        "Satellite Name": "Constellation 1 874",
        "Satellite Number": 874,
        "Semi-Major Axis(m)": 7083131.272910544,
        "Time(s)": 65
    },
    {
        "Altitude(m)": 717820.6561449642,
        "Argument of Periapsis(deg)": 0.003956568412196771,
        "Eccentricity": 0.0,
        "Inclination(deg)": 45.0,
        "Latitude(deg)": -45.003061417480474,
        "Longitude(deg)": -1.1266202266409635,
        "Mean Anomaly(deg)": -94.17552474350666,
        "RAAN(deg)": 194.99626511507242,
        "Satellite Name": "Constellation 1 874",
        "Satellite Number": 874,
        "Semi-Major Axis(m)": 7083131.272910544,
        "Time(s)": 66
    },
    {
        "Altitude(m)": 717822.4432847867,
        "Argument of Periapsis(deg)": 0.004016516418442176,
        "Eccentricity": 0.0,
        "Inclination(deg)": 45.0,
        "Latitude(deg)": -45.007421068148,
        "Longitude(deg)": -1.0455342435476334,
        "Mean Anomaly(deg)": -94.11482360325671,
        "RAAN(deg)": 194.99620852590687,
        "Satellite Name": "Constellation 1 874",
        "Satellite Number": 874,
        "Semi-Major Axis(m)": 7083131.272910544,
        "Time(s)": 67
    },
    {
        "Altitude(m)": 717824.2042400284,
        "Argument of Periapsis(deg)": 0.004076464424687581,
        "Eccentricity": 0.0,
        "Inclination(deg)": 45.0,
        "Latitude(deg)": -45.01171717844982,
        "Longitude(deg)": -0.9644352885398351,
        "Mean Anomaly(deg)": -94.05412246300683,
        "RAAN(deg)": 194.99615193674126,
        "Satellite Name": "Constellation 1 874",
        "Satellite Number": 874,
        "Semi-Major Axis(m)": 7083131.272910544,
        "Time(s)": 68
    },
    {
        "Altitude(m)": 717825.9390041744,
        "Argument of Periapsis(deg)": 0.004136412430932987,
        "Eccentricity": 0.0,
        "Inclination(deg)": 45.0,
        "Latitude(deg)": -45.01594972959071,
        "Longitude(deg)": -0.8833237139349642,
        "Mean Anomaly(deg)": -93.99342132275699,
        "RAAN(deg)": 194.9960953475757,
        "Satellite Name": "Constellation 1 874",
        "Satellite Number": 874,
        "Semi-Major Axis(m)": 7083131.272910544,
        "Time(s)": 69
    },
    {
        "Altitude(m)": 717827.6475707886,
        "Argument of Periapsis(deg)": 0.004196360437178394,
        "Eccentricity": 0.0,
        "Inclination(deg)": 45.0,
        "Latitude(deg)": -45.02011870304648,
        "Longitude(deg)": -0.8021997041751592,
        "Mean Anomaly(deg)": -93.93272018250703,
        "RAAN(deg)": 194.99603875841015,
        "Satellite Name": "Constellation 1 874",
        "Satellite Number": 874,
        "Semi-Major Axis(m)": 7083131.272910544,
        "Time(s)": 70
    },
    {
        "Altitude(m)": 717829.3299335499,
        "Argument of Periapsis(deg)": 0.004256308443423799,
        "Eccentricity": 0.0,
        "Inclination(deg)": 45.0,
        "Latitude(deg)": -45.024224080564444,
        "Longitude(deg)": -0.7210634439217073,
        "Mean Anomaly(deg)": -93.87201904225716,
        "RAAN(deg)": 194.99598216924457,
        "Satellite Name": "Constellation 1 874",
        "Satellite Number": 874,
        "Semi-Major Axis(m)": 7083131.272910544,
        "Time(s)": 71
    },
    {
        "Altitude(m)": 717830.9860862221,
        "Argument of Periapsis(deg)": 0.004316256449669204,
        "Eccentricity": 0.0,
        "Inclination(deg)": 45.0,
        "Latitude(deg)": -45.02826584416384,
        "Longitude(deg)": -0.6399151180512546,
        "Mean Anomaly(deg)": -93.8113179020073,
        "RAAN(deg)": 194.99592558007902,
        "Satellite Name": "Constellation 1 874",
        "Satellite Number": 874,
        "Semi-Major Axis(m)": 7083131.272910544,
        "Time(s)": 72
    },
    {
        "Altitude(m)": 717832.6160226702,
        "Argument of Periapsis(deg)": 0.00437620445591461,
        "Eccentricity": 0.0,
        "Inclination(deg)": 45.0,
        "Latitude(deg)": -45.03224397613631,
        "Longitude(deg)": -0.5587549116527435,
        "Mean Anomaly(deg)": -93.75061676175736,
        "RAAN(deg)": 194.99586899091346,
        "Satellite Name": "Constellation 1 874",
        "Satellite Number": 874,
        "Semi-Major Axis(m)": 7083131.272910544,
        "Time(s)": 73
    },
    {
        "Altitude(m)": 717834.2197368543,
        "Argument of Periapsis(deg)": 0.004436152462160016,
        "Eccentricity": 0.0,
        "Inclination(deg)": 45.0,
        "Latitude(deg)": -45.03615845904641,
        "Longitude(deg)": -0.47758317812199685,
        "Mean Anomaly(deg)": -93.68991562150748,
        "RAAN(deg)": 194.99581240174786,
        "Satellite Name": "Constellation 1 874",
        "Satellite Number": 874,
        "Semi-Major Axis(m)": 7083131.272910544,
        "Time(s)": 74
    },
    {
        "Altitude(m)": 717835.797222832,
        "Argument of Periapsis(deg)": 0.0044961004684054215,
        "Eccentricity": 0.0,
        "Inclination(deg)": 45.0,
        "Latitude(deg)": -45.04000927573091,
        "Longitude(deg)": -0.3963997667693201,
        "Mean Anomaly(deg)": -93.62921448125753,
        "RAAN(deg)": 194.9957558125823,
        "Satellite Name": "Constellation 1 874",
        "Satellite Number": 874,
        "Semi-Major Axis(m)": 7083131.272910544,
        "Time(s)": 75
    }
]